AII-BRAVO               
1 48270U 21034C   26068.69561509  .00006142  00000+0  46527-3 0  9993
2 48270  97.5758 125.8704 0005372 233.3237 126.7495 15.02621336264679
STARLINK-5801           
1 56005U 23042V   26068.03089550  .00001906  00000+0  15615-3 0  9995
2 56005  43.0038  59.4846 0001164 252.6166 107.4549 15.02523886162810
